{"type": "FeatureCollection", "features": [ {"type": "Feature", "properties": {"norad_id": 34571, "name": "COSMOS 2251 DEB", "group": "cosmos-2251-debris", "lat": 72.75686404009384, "lon": -85.35332753110956, "alt_km": 727.6376683850876, "timestamp": "2025-12-23T16:57:12.749426+00:00", "meta": {"OBJECT_NAME": "COSMOS 2251 DEB", "OBJECT_ID": "1993-036VH", "EPOCH": "2025-12-21T21:25:20.768736", "MEAN_MOTION": 14.4895116, "ECCENTRICITY": 0.00652122, "INCLINATION": 74.039, "RA_OF_ASC_NODE": 165.2791, "ARG_OF_PERICENTER": 198.2553, "MEAN_ANOMALY": 161.6266, "EPHEMERIS_TYPE": 0, "CLASSIFICATION_TYPE": "U", "NORAD_CAT_ID": 34571, "ELEMENT_SET_NO": 999, "REV_AT_EPOCH": 87426, "BSTAR": 0.0025690074, "MEAN_MOTION_DOT": 9.985e-05, "MEAN_MOTION_DDOT": 0}, "tle": {"line1": "1 34571U 93036VH  25355.89260149  .00009985  00000+0  25690-2 0  9994", "line2": "2 34571  74.0390 165.2791 0065212 198.2553 161.6266 14.48951160874269"}}, "geometry": {"type": "Point", "coordinates": [-85.35332753110956, 72.75686404009384]}}, {"type": "Feature", "properties": {"norad_id": 34572, "name": "COSMOS 2251 DEB", "group": "cosmos-2251-debris", "lat": 7.399922215626264, "lon": 97.00992903480395, "alt_km": 767.3563992986883, "timestamp": "2025-12-23T16:57:12.749440+00:00", "meta": {"OBJECT_NAME": "COSMOS 2251 DEB", "OBJECT_ID": "1993-036VJ", "EPOCH": "2025-12-22T08:04:06.005568", "MEAN_MOTION": 14.50188694, "ECCENTRICITY": 0.00616659, "INCLINATION": 74.0115, "RA_OF_ASC_NODE": 97.4527, "ARG_OF_PERICENTER": 169.5509, "MEAN_ANOMALY": 247.8934, "EPHEMERIS_TYPE": 0, "CLASSIFICATION_TYPE": "U", "NORAD_CAT_ID": 34572, "ELEMENT_SET_NO": 999, "REV_AT_EPOCH": 87517, "BSTAR": 0.0026494819, "MEAN_MOTION_DOT": 0.00010544, "MEAN_MOTION_DDOT": 0}, "tle": {"line1": "1 34572U 93036VJ  25356.33618062  .00010544  00000+0  26495-2 0  9993", "line2": "2 34572  74.0115  97.4527 0061665 169.5509 247.8934 14.50188694875175"}}, "geometry": {"type": "Point", "coordinates": [97.00992903480395, 7.399922215626264]}}, {"type": "Feature", "properties": {"norad_id": 34574, "name": "COSMOS 2251 DEB", "group": "cosmos-2251-debris", "lat": -14.598345327321496, "lon": 17.62271435387004, "alt_km": 635.4716385451111, "timestamp": "2025-12-23T16:57:12.749450+00:00", "meta": {"OBJECT_NAME": "COSMOS 2251 DEB", "OBJECT_ID": "1993-036VL", "EPOCH": "2025-12-22T03:43:37.953696", "MEAN_MOTION": 14.70698881, "ECCENTRICITY": 0.00671818, "INCLINATION": 74.0679, "RA_OF_ASC_NODE": 24.8931, "ARG_OF_PERICENTER": 42.8565, "MEAN_ANOMALY": 13.7462, "EPHEMERIS_TYPE": 0, "CLASSIFICATION_TYPE": "U", "NORAD_CAT_ID": 34574, "ELEMENT_SET_NO": 999, "REV_AT_EPOCH": 88917, "BSTAR": 0.00094180568, "MEAN_MOTION_DOT": 5.915e-05, "MEAN_MOTION_DDOT": 0}, "tle": {"line1": "1 34574U 93036VL  25356.15530039  .00005915  00000+0  94181-3 0  9996", "line2": "2 34574  74.0679  24.8931 0067181  42.8565  13.7462 14.70698881889176"}}, "geometry": {"type": "Point", "coordinates": [17.62271435387004, -14.598345327321496]}}, {"type": "Feature", "properties": {"norad_id": 34576, "name": "COSMOS 2251 DEB", "group": "cosmos-2251-debris", "lat": 68.65980993709051, "lon": 164.5386076516657, "alt_km": 706.5608363942192, "timestamp": "2025-12-23T16:57:12.749460+00:00", "meta": {"OBJECT_NAME": "COSMOS 2251 DEB", "OBJECT_ID": "1993-036VN", "EPOCH": "2025-12-22T07:44:16.997280", "MEAN_MOTION": 14.55488291, "ECCENTRICITY": 0.00082401, "INCLINATION": 74.0347, "RA_OF_ASC_NODE": 120.0424, "ARG_OF_PERICENTER": 257.8353, "MEAN_ANOMALY": 129.0853, "EPHEMERIS_TYPE": 0, "CLASSIFICATION_TYPE": "U", "NORAD_CAT_ID": 34576, "ELEMENT_SET_NO": 999, "REV_AT_EPOCH": 88606, "BSTAR": 0.00083691505, "MEAN_MOTION_DOT": 3.617e-05, "MEAN_MOTION_DDOT": 0}, "tle": {"line1": "1 34576U 93036VN  25356.32241895  .00003617  00000+0  83692-3 0  9998", "line2": "2 34576  74.0347 120.0424 0008240 257.8353 129.0853 14.55488291886065"}}, "geometry": {"type": "Point", "coordinates": [164.5386076516657, 68.65980993709051]}}, {"type": "Feature", "properties": {"norad_id": 34579, "name": "COSMOS 2251 DEB", "group": "cosmos-2251-debris", "lat": -67.41788436159612, "lon": 66.91510637030142, "alt_km": 729.0527954378349, "timestamp": "2025-12-23T16:57:12.749470+00:00", "meta": {"OBJECT_NAME": "COSMOS 2251 DEB", "OBJECT_ID": "1993-036VR", "EPOCH": "2025-12-22T18:45:53.200800", "MEAN_MOTION": 14.45333715, "ECCENTRICITY": 0.00275078, "INCLINATION": 74.0515, "RA_OF_ASC_NODE": 205.1972, "ARG_OF_PERICENTER": 272.3481, "MEAN_ANOMALY": 212.941, "EPHEMERIS_TYPE": 0, "CLASSIFICATION_TYPE": "U", "NORAD_CAT_ID": 34579, "ELEMENT_SET_NO": 999, "REV_AT_EPOCH": 88319, "BSTAR": 0.00031216852, "MEAN_MOTION_DOT": 1.075e-05, "MEAN_MOTION_DDOT": 0}, "tle": {"line1": "1 34579U 93036VR  25356.78186575  .00001075  00000+0  31217-3 0  9996", "line2": "2 34579  74.0515 205.1972 0027507 272.3481 212.9410 14.45333715883190"}}, "geometry": {"type": "Point", "coordinates": [66.91510637030142, -67.41788436159612]}}, {"type": "Feature", "properties": {"norad_id": 34582, "name": "COSMOS 2251 DEB", "group": "cosmos-2251-debris", "lat": 60.66722377306789, "lon": 41.32164020294809, "alt_km": 755.6256513125254, "timestamp": "2025-12-23T16:57:12.749480+00:00", "meta": {"OBJECT_NAME": "COSMOS 2251 DEB", "OBJECT_ID": "1993-036VU", "EPOCH": "2025-12-22T17:08:14.927424", "MEAN_MOTION": 14.43373223, "ECCENTRICITY": 0.0048415, "INCLINATION": 74.0196, "RA_OF_ASC_NODE": 253.8278, "ARG_OF_PERICENTER": 1.8359, "MEAN_ANOMALY": 358.2965, "EPHEMERIS_TYPE": 0, "CLASSIFICATION_TYPE": "U", "NORAD_CAT_ID": 34582, "ELEMENT_SET_NO": 999, "REV_AT_EPOCH": 88091, "BSTAR": 0.00069321765, "MEAN_MOTION_DOT": 2.346e-05, "MEAN_MOTION_DDOT": 0}, "tle": {"line1": "1 34582U 93036VU  25356.71406166  .00002346  00000+0  69322-3 0  9994", "line2": "2 34582  74.0196 253.8278 0048415   1.8359 358.2965 14.43373223880910"}}, "geometry": {"type": "Point", "coordinates": [41.32164020294809, 60.66722377306789]}}, {"type": "Feature", "properties": {"norad_id": 34588, "name": "COSMOS 2251 DEB", "group": "cosmos-2251-debris", "lat": 58.599967388757726, "lon": 39.98168211829872, "alt_km": 759.4618275553057, "timestamp": "2025-12-23T16:57:12.749491+00:00", "meta": {"OBJECT_NAME": "COSMOS 2251 DEB", "OBJECT_ID": "1993-036WA", "EPOCH": "2025-12-23T03:47:51.377856", "MEAN_MOTION": 14.42050655, "ECCENTRICITY": 0.00192935, "INCLINATION": 74.0427, "RA_OF_ASC_NODE": 248.9501, "ARG_OF_PERICENTER": 300.6311, "MEAN_ANOMALY": 212.1349, "EPHEMERIS_TYPE": 0, "CLASSIFICATION_TYPE": "U", "NORAD_CAT_ID": 34588, "ELEMENT_SET_NO": 999, "REV_AT_EPOCH": 88100, "BSTAR": 0.00038418829, "MEAN_MOTION_DOT": 1.238e-05, "MEAN_MOTION_DDOT": 0}, "tle": {"line1": "1 34588U 93036WA  25357.15823354  .00001238  00000+0  38419-3 0  9993", "line2": "2 34588  74.0427 248.9501 0019293 300.6311 212.1349 14.42050655881002"}}, "geometry": {"type": "Point", "coordinates": [39.98168211829872, 58.599967388757726]}}, {"type": "Feature", "properties": {"norad_id": 34589, "name": "COSMOS 2251 DEB", "group": "cosmos-2251-debris", "lat": -73.91426404573465, "lon": -51.87226990050153, "alt_km": 877.125301682313, "timestamp": "2025-12-23T16:57:12.749502+00:00", "meta": {"OBJECT_NAME": "COSMOS 2251 DEB", "OBJECT_ID": "1993-036WB", "EPOCH": "2025-12-22T21:28:19.587360", "MEAN_MOTION": 13.8606442, "ECCENTRICITY": 0.0252311, "INCLINATION": 73.9251, "RA_OF_ASC_NODE": 38.7279, "ARG_OF_PERICENTER": 340.0599, "MEAN_ANOMALY": 203.9876, "EPHEMERIS_TYPE": 0, "CLASSIFICATION_TYPE": "U", "NORAD_CAT_ID": 34589, "ELEMENT_SET_NO": 999, "REV_AT_EPOCH": 84852, "BSTAR": 0.00040697, "MEAN_MOTION_DOT": 5.77e-06, "MEAN_MOTION_DDOT": 0}, "tle": {"line1": "1 34589U 93036WB  25356.89467115  .00000577  00000+0  40697-3 0  9999", "line2": "2 34589  73.9251  38.7279 0252311 340.0599 203.9876 13.86064420848524"}}, "geometry": {"type": "Point", "coordinates": [-51.87226990050153, -73.91426404573465]}}, {"type": "Feature", "properties": {"norad_id": 34590, "name": "COSMOS 2251 DEB", "group": "cosmos-2251-debris", "lat": 74.03312215575667, "lon": 32.587915800447504, "alt_km": 657.6915700588161, "timestamp": "2025-12-23T16:57:12.749512+00:00", "meta": {"OBJECT_NAME": "COSMOS 2251 DEB", "OBJECT_ID": "1993-036WC", "EPOCH": "2025-12-23T05:17:32.154720", "MEAN_MOTION": 14.54837611, "ECCENTRICITY": 0.00680456, "INCLINATION": 74.0445, "RA_OF_ASC_NODE": 302.724, "ARG_OF_PERICENTER": 69.2613, "MEAN_ANOMALY": 356.915, "EPHEMERIS_TYPE": 0, "CLASSIFICATION_TYPE": "U", "NORAD_CAT_ID": 34590, "ELEMENT_SET_NO": 999, "REV_AT_EPOCH": 89273, "BSTAR": 0.00013257599, "MEAN_MOTION_DOT": 5.57e-06, "MEAN_MOTION_DDOT": 0}, "tle": {"line1": "1 34590U 93036WC  25357.22051105  .00000557  00000+0  13258-3 0  9998", "line2": "2 34590  74.0445 302.7240 0068045  69.2613 356.9150 14.54837611892733"}}, "geometry": {"type": "Point", "coordinates": [32.587915800447504, 74.03312215575667]}}, {"type": "Feature", "properties": {"norad_id": 34609, "name": "COSMOS 2251 DEB", "group": "cosmos-2251-debris", "lat": -1.3745364971553808, "lon": 86.2775584575655, "alt_km": 759.6012977350274, "timestamp": "2025-12-23T16:57:12.749523+00:00", "meta": {"OBJECT_NAME": "COSMOS 2251 DEB", "OBJECT_ID": "1993-036WE", "EPOCH": "2025-12-22T12:18:42.095808", "MEAN_MOTION": 14.21825611, "ECCENTRICITY": 0.01456888, "INCLINATION": 73.7327, "RA_OF_ASC_NODE": 88.8594, "ARG_OF_PERICENTER": 306.8419, "MEAN_ANOMALY": 64.3001, "EPHEMERIS_TYPE": 0, "CLASSIFICATION_TYPE": "U", "NORAD_CAT_ID": 34609, "ELEMENT_SET_NO": 999, "REV_AT_EPOCH": 86771, "BSTAR": 0.00071152645, "MEAN_MOTION_DOT": 1.717e-05, "MEAN_MOTION_DDOT": 0}, "tle": {"line1": "1 34609U 93036WE  25356.51298722  .00001717  00000+0  71153-3 0  9995", "line2": "2 34609  73.7327  88.8594 0145688 306.8419  64.3001 14.21825611867712"}}, "geometry": {"type": "Point", "coordinates": [86.2775584575655, -1.3745364971553808]}}]}